{
    "links": {
        "self": "http://www.neowsapp.com/rest/v1/neo/3507183?api_key=iIulBulltgU6a56xZRHN4H3l9WmuAYTsLGpBGhQ2"
    },
    "id": "3507183",
    "neo_reference_id": "3507183",
    "name": "(2010 CK1)",
    "designation": "2010 CK1",
    "nasa_jpl_url": "http://ssd.jpl.nasa.gov/sbdb.cgi?sstr=3507183",
    "absolute_magnitude_h": 24.0,
    "estimated_diameter": {
        "kilometers": {
            "estimated_diameter_min": 0.0421264611,
            "estimated_diameter_max": 0.0941976306
        },
        "meters": {
            "estimated_diameter_min": 42.1264610556,
            "estimated_diameter_max": 94.1976305719
        },
        "miles": {
            "estimated_diameter_min": 0.0261761612,
            "estimated_diameter_max": 0.0585316759
        },
        "feet": {
            "estimated_diameter_min": 138.2101784897,
            "estimated_diameter_max": 309.0473542854
        }
    },
    "is_potentially_hazardous_asteroid": false,
    "close_approach_data": [
        {
            "close_approach_date": "2005-08-10",
            "close_approach_date_full": "2005-Aug-10 08:50",
            "epoch_date_close_approach": 1123663800000,
            "relative_velocity": {
                "kilometers_per_second": "17.6215394402",
                "kilometers_per_hour": "63437.5419846095",
                "miles_per_hour": "39417.6215737147"
            },
            "miss_distance": {
                "astronomical": "0.2141154721",
                "lunar": "83.2909186469",
                "kilometers": "32031218.560204427",
                "miles": "19903276.2861260126"
            },
            "orbiting_body": "Earth"
        },
        {
            "close_approach_date": "2010-02-13",
            "close_approach_date_full": "2010-Feb-13 11:10",
            "epoch_date_close_approach": 1266059400000,
            "relative_velocity": {
                "kilometers_per_second": "15.2357315485",
                "kilometers_per_hour": "54848.6335744938",
                "miles_per_hour": "34080.8079007737"
            },
            "miss_distance": {
                "astronomical": "0.0586772512",
                "lunar": "22.8254507168",
                "kilometers": "8777991.796974944",
                "miles": "5454391.1791604672"
            },
            "orbiting_body": "Earth"
        },
        {
            "close_approach_date": "2010-08-15",
            "close_approach_date_full": "2010-Aug-15 08:29",
            "epoch_date_close_approach": 1281860940000,
            "relative_velocity": {
                "kilometers_per_second": "13.4887919009",
                "kilometers_per_hour": "48559.6508433156",
                "miles_per_hour": "30173.0786031702"
            },
            "miss_distance": {
                "astronomical": "0.3432075472",
                "lunar": "133.5077358608",
                "kilometers": "51343118.029044464",
                "miles": "31903134.1752590432"
            },
            "orbiting_body": "Earth"
        }
    ],
    "orbital_data": {
        "orbit_id": "11",
        "orbit_determination_date": "2017-04-06 08:58:29",
        "first_observation_date": "2010-02-09",
        "last_observation_date": "2010-02-19",
        "data_arc_in_days": 10,
        "observations_used": 38,
        "orbit_uncertainty": "8",
        "minimum_orbit_intersection": ".0536338",
        "jupiter_tisserand_invariant": "5.353",
        "epoch_osculation": "2455240.5",
        "eccentricity": ".2153961740834699",
        "semi_major_axis": "1.146585989693644",
        "inclination": "27.27671259558836",
        "ascending_node_longitude": "141.4573425449707",
        "orbital_period": "448.4441603676858",
        "perihelion_distance": ".8996157542559244",
        "perihelion_argument": "77.87373480769479",
        "aphelion_distance": "1.393556225131364",
        "perihelion_time": "2455307.060895261983",
        "mean_anomaly": "306.5665418083108",
        "mean_motion": ".8027755333123991",
        "equinox": "J2000",
        "orbit_class": {
            "orbit_class_type": "APO",
            "orbit_class_description": "Near-Earth asteroid orbits which cross the Earth’s orbit similar to that of 1862 Apollo",
            "orbit_class_range": "a (semi-major axis) > 1.0 AU; q (perihelion) < 1.017 AU"
        }
    },
    "is_sentry_object": false
}